NORAD_CAT_ID,OBJECT_NAME,OBJECT_TYPE,EPOCH,MEAN_MOTION,ECCENTRICITY,INCLINATION,RA_OF_ASC_NODE,ARG_OF_PERICENTER,MEAN_ANOMALY,BSTAR,MEAN_MOTION_DOT,MEAN_MOTION_DDOT,TLE_LINE0,TLE_LINE1,TLE_LINE2,SEMIMAJOR_AXIS,PERIOD,APOGEE,PERIGEE,DECAYED
52875.0,STARLINK-4193,PAYLOAD,2023-07-09 02:17:33,15.08840692,0.0001023,53.2177,69.2457,87.1018,273.0092,1.2354e-05,-9.1e-07,0.0,0 STARLINK-4193,1 52875U 22062AX  23190.09553226 -.00000091  00000-0  12354-4 0  9996,2 52875  53.2177  69.2457 0001023  87.1018 273.0092 15.08840692 59424,6917.878,95.438,540.451,539.036,0.0
52875.0,STARLINK-4193,PAYLOAD,2023-07-09 22:57:35,15.08835358,9.93e-05,53.217,65.3807,97.3428,262.7677,2.0624e-05,4e-07,0.0,0 STARLINK-4193,1 52875U 22062AX  23190.95665779  .00000040  00000-0  20624-4 0  9990,2 52875  53.2170  65.3807 0000993  97.3428 262.7677 15.08835358 59557,6917.895,95.438,540.447,539.073,0.0
52875.0,STARLINK-4193,PAYLOAD,2023-07-11 00:23:44,15.0884361,9.14e-05,53.2175,60.6218,90.6243,269.4854,8.9822e-05,1.142e-05,0.0,0 STARLINK-4193,1 52875U 22062AX  23192.01649272  .00001142  00000-0  89822-4 0  9998,2 52875  53.2175  60.6218 0000914  90.6243 269.4854 15.08843610 59719,6917.869,95.437,540.367,539.102,0.0
52875.0,STARLINK-4193,PAYLOAD,2023-07-12 00:14:32,15.08818165,0.0001034,53.2181,56.1619,90.2211,269.8899,0.00046725,7.152e-05,0.0,0 STARLINK-4193,1 52875U 22062AX  23193.01009772  .00007152  00000-0  46725-3 0  9995,2 52875  53.2181  56.1619 0001034  90.2211 269.8899 15.08818165 59862,6917.947,95.439,540.527,539.097,0.0
52875.0,STARLINK-4193,PAYLOAD,2023-07-13 00:05:19,15.08843447,9.74e-05,53.2183,51.6985,95.1197,264.9906,-2.3753e-05,-6.66e-06,0.0,0 STARLINK-4193,1 52875U 22062AX  23194.00369622 -.00000666  00000-0 -23753-4 0  9990,2 52875  53.2183  51.6985 0000974  95.1197 264.9906 15.08843447 60014,6917.87,95.437,540.409,539.061,0.0
52875.0,STARLINK-4193,PAYLOAD,2023-07-14 17:25:20,15.08841151,9.81e-05,53.2182,43.9666,94.1003,266.0101,9.8189e-05,1.275e-05,0.0,0 STARLINK-4193,1 52875U 22062AX  23195.72593501  .00001275  00000-0  98189-4 0  9995,2 52875  53.2182  43.9666 0000981  94.1003 266.0101 15.08841151 60274,6917.877,95.437,540.421,539.063,0.0
52875.0,STARLINK-4193,PAYLOAD,2023-07-14 23:46:52,15.08847444,9.89e-05,53.2178,42.7784,88.5004,271.6101,0.00012694,1.733e-05,0.0,0 STARLINK-4193,1 52875U 22062AX  23195.99089026  .00001733  00000-0  12694-3 0  9991,2 52875  53.2178  42.7784 0000989  88.5004 271.6101 15.08847444 60311,6917.858,95.437,540.407,539.038,0.0
52875.0,STARLINK-4193,PAYLOAD,2023-07-15 17:16:08,15.08835456,9.48e-05,53.2176,39.5086,82.9435,277.1665,1.3502e-05,-7.3e-07,0.0,0 STARLINK-4193,1 52875U 22062AX  23196.71954261 -.00000073  00000-0  13502-4 0  9991,2 52875  53.2176  39.5086 0000948  82.9435 277.1665 15.08835456 60427,6917.894,95.438,540.415,539.103,0.0
52875.0,STARLINK-4193,PAYLOAD,2023-07-16 20:17:41,15.08843643,9.94e-05,53.2175,34.4541,74.9061,285.2042,5.7543e-06,-1.96e-06,0.0,0 STARLINK-4193,1 52875U 22062AX  23197.84562076 -.00000196  00000-0  57543-5 0  9995,2 52875  53.2175  34.4541 0000994  74.9061 285.2042 15.08843643 60597,6917.869,95.437,540.422,539.047,0.0
52875.0,STARLINK-4193,PAYLOAD,2023-07-17 23:19:14,15.08850797,0.0001022,53.2176,29.3988,74.2738,285.8366,0.00019234,2.775e-05,0.0,0 STARLINK-4193,1 52875U 22062AX  23198.97169339  .00002775  00000-0  19234-3 0  9992,2 52875  53.2176  29.3988 0001022  74.2738 285.8366 15.08850797 60765,6917.847,95.437,540.419,539.005,0.0
52875.0,STARLINK-4193,PAYLOAD,2023-07-18 12:02:20,15.08832756,9.46e-05,53.2179,27.0198,79.2832,280.8266,8.2498e-05,1.025e-05,0.0,0 STARLINK-4193,1 52875U 22062AX  23199.50162849  .00001025  00000-0  82498-4 0  9991,2 52875  53.2179  27.0198 0000946  79.2832 280.8266 15.08832756 60848,6917.903,95.438,540.422,539.113,0.0
52875.0,STARLINK-4193,PAYLOAD,2023-07-18 23:10:01,15.08843025,0.0001,53.2175,24.9383,81.5717,278.5388,4.7628e-05,4.7e-06,0.0,0 STARLINK-4193,1 52875U 22062AX  23199.96529996  .00000470  00000-0  47628-4 0  9990,2 52875  53.2175  24.9383 0001000  81.5717 278.5388 15.08843025 60914,6917.871,95.437,540.428,539.044,0.0
52875.0,STARLINK-4193,PAYLOAD,2023-07-19 16:39:17,15.08829736,8.06e-05,53.2177,21.6653,91.0627,269.0457,-3.9348e-06,-3.5e-06,0.0,0 STARLINK-4193,1 52875U 22062AX  23200.69395095 -.00000350  00000-0 -39348-5 0  9994,2 52875  53.2177  21.6653 0000806  91.0627 269.0457 15.08829736 61027,6917.912,95.438,540.334,539.219,0.0
52875.0,STARLINK-4193,PAYLOAD,2023-07-20 21:16:13,15.08849335,8.66e-05,53.2181,16.3127,97.337,262.772,0.00026869,3.992e-05,0.0,0 STARLINK-4193,1 52875U 22062AX  23201.88626634  .00003992  00000-0  26869-3 0  9997,2 52875  53.2181  16.3127 0000866  97.3370 262.7720 15.08849335 61209,6917.852,95.437,540.316,539.118,0.0
52875.0,STARLINK-4193,PAYLOAD,2023-07-21 11:34:41,15.0884415,9.3e-05,53.2175,13.6355,130.308,229.7994,0.00029346,4.386e-05,0.0,0 STARLINK-4193,1 52875U 22062AX  23202.48242831  .00004386  00000-0  29346-3 0  9998,2 52875  53.2175  13.6355 0000930 130.3080 229.7994 15.08844150 61298,6917.868,95.437,540.376,539.089,0.0
52875.0,STARLINK-4193,PAYLOAD,2023-07-24 11:07:03,15.08837024,9.81e-05,53.2182,0.2581,100.9702,259.1401,9.4762e-05,1.221e-05,0.0,0 STARLINK-4193,1 52875U 22062AX  23205.46323082  .00001221  00000-0  94762-4 0  9997,2 52875  53.2182   0.2581 0000981 100.9702 259.1401 15.08837024 61257,6917.889,95.438,540.433,539.076,0.0
52875.0,STARLINK-4193,PAYLOAD,2023-07-25 12:33:13,15.08841868,0.0001024,53.2178,355.5003,96.2367,263.8741,0.00012178,1.651e-05,0.0,0 STARLINK-4193,1 52875U 22062AX  23206.52307000  .00001651  00000-0  12178-3 0  9994,2 52875  53.2178 355.5003 0001024  96.2367 263.8741 15.08841868 61418,6917.875,95.437,540.448,539.031,0.0
52875.0,STARLINK-4193,PAYLOAD,2023-07-26 10:48:37,15.08840462,9.57e-05,53.2175,351.3377,84.8191,275.291,7.4101e-05,8.92e-06,0.0,0 STARLINK-4193,1 52875U 22062AX  23207.45043055  .00000892  00000-0  74101-4 0  9995,2 52875  53.2175 351.3377 0000957  84.8191 275.2910 15.08840462 61554,6917.879,95.438,540.406,539.082,0.0
52875.0,STARLINK-4193,PAYLOAD,2023-07-27 02:42:28,15.08848331,0.0001009,53.2173,348.3639,74.8443,285.266,0.00011028,1.468e-05,0.0,0 STARLINK-4193,1 52875U 22062AX  23208.11282606  .00001468  00000-0  11028-3 0  9994,2 52875  53.2173 348.3639 0001009  74.8443 285.2660 15.08848331 61654,6917.855,95.437,540.418,539.022,0.0
52875.0,STARLINK-4193,PAYLOAD,2023-07-27 15:25:33,15.08841146,0.0001514,53.2169,345.9858,77.4656,282.6506,1.9031e-05,1.5e-07,0.0,0 STARLINK-4193,1 52875U 22062AX  23208.64275153  .00000015  00000-0  19031-4 0  9991,2 52875  53.2169 345.9858 0001514  77.4656 282.6506 15.08841146 62222,6917.877,95.437,540.789,538.695,0.0
52875.0,STARLINK-4193,PAYLOAD,2023-07-28 08:54:48,15.08838855,0.0001099,53.2162,342.7133,75.632,284.4794,-3.9762e-05,-9.21e-06,0.0,0 STARLINK-4193,1 52875U 22062AX  23209.37139454 -.00000921  00000-0 -39762-4 0  9996,2 52875  53.2162 342.7133 0001099  75.6320 284.4794 15.08838855 61841,6917.884,95.438,540.509,538.989,0.0
52875.0,STARLINK-4193,PAYLOAD,2023-07-29 02:24:02,15.08842903,8.89e-05,53.216,339.4435,90.8568,269.2526,6.0103e-05,6.69e-06,0.0,0 STARLINK-4193,1 52875U 22062AX  23210.10003239  .00000669  00000-0  60103-4 0  9990,2 52875  53.2160 339.4435 0000889  90.8568 269.2526 15.08842903 62446,6917.872,95.437,540.352,539.122,0.0
52875.0,STARLINK-4193,PAYLOAD,2023-07-30 08:36:22,15.08838333,0.0001219,53.2154,333.791,107.1761,252.9365,2.8345e-05,1.63e-06,0.0,0 STARLINK-4193,1 52875U 22062AX  23211.35859612  .00000163  00000-0  28345-4 0  9993,2 52875  53.2154 333.7910 0001219 107.1761 252.9365 15.08838333 62632,6917.885,95.438,540.594,538.907,0.0
52875.0,STARLINK-4193,PAYLOAD,2023-07-31 14:48:41,15.08850048,0.0001066,53.218,328.1441,99.0006,261.1106,0.00024395,3.598e-05,0.0,0 STARLINK-4193,1 52875U 22062AX  23212.61715139  .00003598  00000-0  24395-3 0  9993,2 52875  53.2180 328.1441 0001066  99.0006 261.1106 15.08850048 62822,6917.85,95.437,540.452,538.977,0.0
52875.0,STARLINK-4193,PAYLOAD,2023-08-01 17:50:15,15.0884842,9.83e-05,53.2172,323.0904,96.6592,263.4512,0.00021507,3.137e-05,0.0,0 STARLINK-4193,1 52875U 22062AX  23213.74323171  .00003137  00000-0  21507-3 0  9990,2 52875  53.2172 323.0904 0000983  96.6592 263.4512 15.08848420 62996,6917.855,95.437,540.4,539.04,0.0
52875.0,STARLINK-4193,PAYLOAD,2023-08-02 00:11:48,15.08836909,0.00011,53.2171,321.8972,98.0225,262.0892,2.1167e-05,4.9e-07,0.0,0 STARLINK-4193,1 52875U 22062AX  23214.00819649  .00000049  00000-0  21167-4 0  9992,2 52875  53.2171 321.8972 0001100  98.0225 262.0892 15.08836909 63038,6917.89,95.438,540.516,538.994,0.0
52875.0,STARLINK-4193,PAYLOAD,2023-08-02 14:30:16,15.08843949,0.0001065,53.2174,319.2224,94.7219,265.3895,6.8968e-05,8.1e-06,0.0,0 STARLINK-4193,1 52875U 22062AX  23214.60435409  .00000810  00000-0  68968-4 0  9992,2 52875  53.2174 319.2224 0001065  94.7219 265.3895 15.08843949 63129,6917.868,95.437,540.47,538.997,0.0
52875.0,STARLINK-4193,PAYLOAD,2023-08-04 11:01:04,15.0883447,0.0001236,53.2168,310.8971,83.5075,276.6058,4.8761e-05,4.88e-06,0.0,0 STARLINK-4193,1 52875U 22062AX  23216.45908392  .00000488  00000-0  48761-4 0  9993,2 52875  53.2168 310.8971 0001236  83.5075 276.6058 15.08834470 63400,6917.897,95.438,540.617,538.907,0.0
52875.0,STARLINK-4193,PAYLOAD,2023-08-05 10:51:51,15.08852914,0.0001409,53.217,306.4368,68.6318,291.4825,0.00053859,8.297e-05,0.0,0 STARLINK-4193,1 52875U 22062AX  23217.45268089  .00008297  00000-0  53859-3 0  9995,2 52875  53.2170 306.4368 0001409  68.6318 291.4825 15.08852914 63556,6917.841,95.437,540.681,538.731,0.0
52875.0,STARLINK-4193,PAYLOAD,2023-08-05 14:02:37,15.08865455,0.0001332,53.216,305.8413,74.1083,286.0056,0.00098851,0.0001549,0.0,0 STARLINK-4193,1 52875U 22062AX  23217.58515782  .00015490  00000-0  98851-3 0  9998,2 52875  53.2160 305.8413 0001332  74.1083 286.0056 15.08865455 63577,6917.803,95.436,540.589,538.746,0.0
